start=new Date('2021-11-15T00:00:00.000Z').valueOf();
sats=[{"TLE_LINE1":"1 45697U 20035AS  21318.86545479  .00003018  00000-0  22137-3 0  9994","OBJECT_NAME":"STARLINK-1351","MEAN_ANOMALY":"287.1873","INCLINATION":"53.0536","BSTAR":"0.00022137000000","CLASSIFICATION_TYPE":"U","NORAD_CAT_ID":"45697","ECCENTRICITY":"0.00019060","OBJECT_TYPE":"PAYLOAD","TIME_SYSTEM":"UTC","EPOCH":"2021-11-14T20:46:15.293856","PERIAPSIS":"545.872","ELEMENT_SET_NO":"999","COUNTRY_CODE":"US","MEAN_ELEMENT_THEORY":"SGP4","FILE":"3215179","DECAY_DATE":null,"TLE_LINE2":"2 45697  53.0536 270.7692 0001906  72.9325 287.1873 15.06406970 81645","APOAPSIS":"548.512","SITE":"AFETR","LAUNCH_DATE":"2020-06-04","PERIOD":"95.592","REV_AT_EPOCH":"8164","ARG_OF_PERICENTER":"72.9325","RA_OF_ASC_NODE":"270.7692","MEAN_MOTION_DOT":"0.00003018","GP_ID":"189771529","CENTER_NAME":"EARTH","SEMIMAJOR_AXIS":"6925.327","REF_FRAME":"TEME","MEAN_MOTION_DDOT":"0.0000000000000","EPHEMERIS_TYPE":"0","RCS_SIZE":"LARGE","MEAN_MOTION":"15.06406970","OBJECT_ID":"2020-035AS"},{"MEAN_MOTION_DOT":"0.00000126","RA_OF_ASC_NODE":"272.9160","GP_ID":"189743995","CENTER_NAME":"EARTH","SEMIMAJOR_AXIS":"6925.349","REF_FRAME":"TEME","MEAN_MOTION_DDOT":"0.0000000000000","EPHEMERIS_TYPE":"0","RCS_SIZE":"LARGE","OBJECT_ID":"2020-035AT","MEAN_MOTION":"15.06399739","APOAPSIS":"548.424","TLE_LINE2":"2 45698  53.0543 272.9160 0001746  62.4454 297.6712 15.06399739 81571","SITE":"AFETR","LAUNCH_DATE":"2020-06-04","PERIOD":"95.592","REV_AT_EPOCH":"8157","ARG_OF_PERICENTER":"62.4454","EPOCH":"2021-11-14T09:21:33.830496","PERIAPSIS":"546.005","ELEMENT_SET_NO":"999","MEAN_ELEMENT_THEORY":"SGP4","COUNTRY_CODE":"US","FILE":"3214995","DECAY_DATE":null,"TLE_LINE1":"1 45698U 20035AT  21318.38997489  .00000126  00000-0  27378-4 0  9994","OBJECT_NAME":"STARLINK-1370","INCLINATION":"53.0543","MEAN_ANOMALY":"297.6712","BSTAR":"0.00002737800000","CLASSIFICATION_TYPE":"U","NORAD_CAT_ID":"45698","OBJECT_TYPE":"PAYLOAD","ECCENTRICITY":"0.00017460","TIME_SYSTEM":"UTC"},{"OBJECT_TYPE":"PAYLOAD","ECCENTRICITY":"0.00015950","TIME_SYSTEM":"UTC","BSTAR":"-0.00001488100000","CLASSIFICATION_TYPE":"U","NORAD_CAT_ID":"45699","OBJECT_NAME":"STARLINK-1398","INCLINATION":"53.0536","MEAN_ANOMALY":"292.6950","TLE_LINE1":"1 45699U 20035AU  21318.90969499 -.00000503  00000-0 -14881-4 0  9999","MEAN_ELEMENT_THEORY":"SGP4","COUNTRY_CODE":"US","DECAY_DATE":null,"FILE":"3215179","ELEMENT_SET_NO":"999","EPOCH":"2021-11-14T21:49:57.647136","PERIAPSIS":"546.142","REV_AT_EPOCH":"8164","ARG_OF_PERICENTER":"67.4208","LAUNCH_DATE":"2020-06-04","PERIOD":"95.593","SITE":"AFETR","APOAPSIS":"548.351","TLE_LINE2":"2 45699  53.0536 270.5664 0001595  67.4208 292.6950 15.06389123 81644","EPHEMERIS_TYPE":"0","MEAN_MOTION":"15.06389123","OBJECT_ID":"2020-035AU","RCS_SIZE":"LARGE","MEAN_MOTION_DDOT":"0.0000000000000","REF_FRAME":"TEME","SEMIMAJOR_AXIS":"6925.382","GP_ID":"189773031","MEAN_MOTION_DOT":"-0.00000503","RA_OF_ASC_NODE":"270.5664","CENTER_NAME":"EARTH"},{"PERIOD":"95.592","LAUNCH_DATE":"2020-06-04","ARG_OF_PERICENTER":"60.1358","REV_AT_EPOCH":"8156","TLE_LINE2":"2 45700  53.0552 272.9792 0001667  60.1358 299.9796 15.06394800 81566","APOAPSIS":"548.384","SITE":"AFETR","MEAN_MOTION_DDOT":"0.0000000000000","REF_FRAME":"TEME","OBJECT_ID":"2020-035AV","MEAN_MOTION":"15.06394800","RCS_SIZE":"LARGE","EPHEMERIS_TYPE":"0","CENTER_NAME":"EARTH","GP_ID":"189745496","RA_OF_ASC_NODE":"272.9792","MEAN_MOTION_DOT":"0.00000167","SEMIMAJOR_AXIS":"6925.364","NORAD_CAT_ID":"45700","CLASSIFICATION_TYPE":"U","BSTAR":"0.00003009900000","TIME_SYSTEM":"UTC","ECCENTRICITY":"0.00016670","OBJECT_TYPE":"PAYLOAD","TLE_LINE1":"1 45700U 20035AV  21318.37523241  .00000167  00000-0  30099-4 0  9997","MEAN_ANOMALY":"299.9796","INCLINATION":"53.0552","OBJECT_NAME":"STARLINK-1400","ELEMENT_SET_NO":"999","DECAY_DATE":null,"FILE":"3214995","COUNTRY_CODE":"US","MEAN_ELEMENT_THEORY":"SGP4","PERIAPSIS":"546.075","EPOCH":"2021-11-14T09:00:20.080224"},{"GP_ID":"189772029","MEAN_MOTION_DOT":"0.00003893","RA_OF_ASC_NODE":"270.7491","CENTER_NAME":"EARTH","SEMIMAJOR_AXIS":"6925.346","MEAN_MOTION_DDOT":"0.0000000000000","REF_FRAME":"TEME","EPHEMERIS_TYPE":"0","OBJECT_ID":"2020-035AW","MEAN_MOTION":"15.06400782","RCS_SIZE":"LARGE","APOAPSIS":"548.478","TLE_LINE2":"2 45701  53.0521 270.7491 0001829  71.2169 288.9018 15.06400782 81638","SITE":"AFETR","LAUNCH_DATE":"2020-06-04","PERIOD":"95.592","REV_AT_EPOCH":"8163","ARG_OF_PERICENTER":"71.2169","EPOCH":"2021-11-14T20:51:34.502976","PERIAPSIS":"545.945","ELEMENT_SET_NO":"999","MEAN_ELEMENT_THEORY":"SGP4","COUNTRY_CODE":"US","DECAY_DATE":null,"FILE":"3215179","TLE_LINE1":"1 45701U 20035AW  21318.86914934  .00003893  00000-0  28009-3 0  9991","OBJECT_NAME":"STARLINK-1403","MEAN_ANOMALY":"288.9018","INCLINATION":"53.0521","CLASSIFICATION_TYPE":"U","BSTAR":"0.00028009000000","NORAD_CAT_ID":"45701","OBJECT_TYPE":"PAYLOAD","ECCENTRICITY":"0.00018290","TIME_SYSTEM":"UTC"},{"TLE_LINE2":"2 45702  53.0543 272.9203 0001768  73.6625 286.4558 15.06387652 81567","APOAPSIS":"548.476","SITE":"AFETR","LAUNCH_DATE":"2020-06-04","PERIOD":"95.593","REV_AT_EPOCH":"8156","ARG_OF_PERICENTER":"73.6625","RA_OF_ASC_NODE":"272.9203","MEAN_MOTION_DOT":"0.00004489","GP_ID":"189744496","CENTER_NAME":"EARTH","SEMIMAJOR_AXIS":"6925.386","REF_FRAME":"TEME","MEAN_MOTION_DDOT":"0.0000000000000","EPHEMERIS_TYPE":"0","RCS_SIZE":"LARGE","OBJECT_ID":"2020-035AX","MEAN_MOTION":"15.06387652","TLE_LINE1":"1 45702U 20035AX  21318.38631310  .00004489  00000-0  32016-3 0  9998","OBJECT_NAME":"STARLINK-1405","INCLINATION":"53.0543","MEAN_ANOMALY":"286.4558","CLASSIFICATION_TYPE":"U","BSTAR":"0.00032016000000","NORAD_CAT_ID":"45702","OBJECT_TYPE":"PAYLOAD","ECCENTRICITY":"0.00017680","TIME_SYSTEM":"UTC","EPOCH":"2021-11-14T09:16:17.451840","PERIAPSIS":"546.027","ELEMENT_SET_NO":"999","MEAN_ELEMENT_THEORY":"SGP4","COUNTRY_CODE":"US","FILE":"3214995","DECAY_DATE":null},{"DECAY_DATE":null,"FILE":"3215179","MEAN_ELEMENT_THEORY":"SGP4","COUNTRY_CODE":"US","ELEMENT_SET_NO":"999","PERIAPSIS":"546.122","EPOCH":"2021-11-14T20:19:43.136256","TIME_SYSTEM":"UTC","OBJECT_TYPE":"PAYLOAD","ECCENTRICITY":"0.00015980","NORAD_CAT_ID":"45703","CLASSIFICATION_TYPE":"U","BSTAR":"-0.00002289200000","MEAN_ANOMALY":"292.3203","INCLINATION":"53.0548","OBJECT_NAME":"STARLINK-1407","TLE_LINE1":"1 45703U 20035AY  21318.84702704 -.00000622  00000-0 -22892-4 0  9995","MEAN_MOTION":"15.06395184","OBJECT_ID":"2020-035AY","RCS_SIZE":"LARGE","EPHEMERIS_TYPE":"0","MEAN_MOTION_DDOT":"0.0000000000000","REF_FRAME":"TEME","SEMIMAJOR_AXIS":"6925.363","CENTER_NAME":"EARTH","GP_ID":"189772532","MEAN_MOTION_DOT":"-0.00000622","RA_OF_ASC_NODE":"270.8598","ARG_OF_PERICENTER":"67.7955","REV_AT_EPOCH":"8163","PERIOD":"95.592","LAUNCH_DATE":"2020-06-04","SITE":"AFETR","TLE_LINE2":"2 45703  53.0548 270.8598 0001598  67.7955 292.3203 15.06395184 81638","APOAPSIS":"548.335"},{"MEAN_MOTION_DDOT":"0.0000000000000","REF_FRAME":"TEME","MEAN_MOTION":"15.07216064","OBJECT_ID":"2020-035AZ","RCS_SIZE":"LARGE","EPHEMERIS_TYPE":"0","CENTER_NAME":"EARTH","GP_ID":"189771280","RA_OF_ASC_NODE":"300.6940","MEAN_MOTION_DOT":"0.00002266","SEMIMAJOR_AXIS":"6922.849","PERIOD":"95.540","LAUNCH_DATE":"2020-06-04","ARG_OF_PERICENTER":"72.0315","REV_AT_EPOCH":"8122","TLE_LINE2":"2 45704  53.0554 300.6940 0001498  72.0315 288.0838 15.07216064 81228","APOAPSIS":"545.751","SITE":"AFETR","ELEMENT_SET_NO":"999","DECAY_DATE":null,"FILE":"3215179","MEAN_ELEMENT_THEORY":"SGP4","COUNTRY_CODE":"US","PERIAPSIS":"543.677","EPOCH":"2021-11-14T20:57:16.164000","NORAD_CAT_ID":"45704","BSTAR":"0.00016735000000","CLASSIFICATION_TYPE":"U","TIME_SYSTEM":"UTC","ECCENTRICITY":"0.00014980","OBJECT_TYPE":"PAYLOAD","TLE_LINE1":"1 45704U 20035AZ  21318.87310375  .00002266  00000-0  16735-3 0  9990","INCLINATION":"53.0554","MEAN_ANOMALY":"288.0838","OBJECT_NAME":"STARLINK-1409"},{"ECCENTRICITY":"0.00015750","OBJECT_TYPE":"PAYLOAD","TIME_SYSTEM":"UTC","BSTAR":"0.00009544200000","CLASSIFICATION_TYPE":"U","NORAD_CAT_ID":"45705","OBJECT_NAME":"STARLINK-1410","MEAN_ANOMALY":"289.6353","INCLINATION":"53.0540","TLE_LINE1":"1 45705U 20035BA  21318.89955162  .00001140  00000-0  95442-4 0  9995","COUNTRY_CODE":"US","MEAN_ELEMENT_THEORY":"SGP4","DECAY_DATE":null,"FILE":"3215179","ELEMENT_SET_NO":"999","EPOCH":"2021-11-14T21:35:21.259968","PERIAPSIS":"546.126","REV_AT_EPOCH":"8121","ARG_OF_PERICENTER":"70.4806","LAUNCH_DATE":"2020-06-04","PERIOD":"95.592","SITE":"AFETR","TLE_LINE2":"2 45705  53.0540 300.6282 0001575  70.4806 289.6353 15.06398864 81212","APOAPSIS":"548.308","EPHEMERIS_TYPE":"0","OBJECT_ID":"2020-035BA","MEAN_MOTION":"15.06398864","RCS_SIZE":"LARGE","MEAN_MOTION_DDOT":"0.0000000000000","REF_FRAME":"TEME","SEMIMAJOR_AXIS":"6925.352","GP_ID":"189771530","RA_OF_ASC_NODE":"300.6282","MEAN_MOTION_DOT":"0.00001140","CENTER_NAME":"EARTH"},{"SITE":"AFETR","TLE_LINE2":"2 45706  53.0541 270.6552 0001669  70.2766 289.8403 15.06388565 81638","APOAPSIS":"548.404","ARG_OF_PERICENTER":"70.2766","REV_AT_EPOCH":"8163","PERIOD":"95.593","LAUNCH_DATE":"2020-06-04","SEMIMAJOR_AXIS":"6925.384","CENTER_NAME":"EARTH","GP_ID":"189772282","RA_OF_ASC_NODE":"270.6552","MEAN_MOTION_DOT":"0.00000271","OBJECT_ID":"2020-035BB","MEAN_MOTION":"15.06388565","RCS_SIZE":"LARGE","EPHEMERIS_TYPE":"0","MEAN_MOTION_DDOT":"0.0000000000000","REF_FRAME":"TEME","INCLINATION":"53.0541","MEAN_ANOMALY":"289.8403","OBJECT_NAME":"STARLINK-1411","TLE_LINE1":"1 45706U 20035BB  21318.89126594  .00000271  00000-0  37103-4 0  9999","TIME_SYSTEM":"UTC","ECCENTRICITY":"0.00016690","OBJECT_TYPE":"PAYLOAD","NORAD_CAT_ID":"45706","BSTAR":"0.00003710300000","CLASSIFICATION_TYPE":"U","PERIAPSIS":"546.093","EPOCH":"2021-11-14T21:23:25.377216","DECAY_DATE":null,"FILE":"3215179","COUNTRY_CODE":"US","MEAN_ELEMENT_THEORY":"SGP4","ELEMENT_SET_NO":"999"}];
